O3B FM5                 
1 39188U 13031A   22255.82936362 -.00000028  00000+0  00000+0 0  9991
2 39188   0.0606  18.8287 0002595 156.3834 184.7905  5.00115292168327
O3B FM4                 
1 39189U 13031B   22255.88539502 -.00000028  00000+0  00000+0 0  9993
2 39189   0.0536 351.4393 0002556 183.5344 185.0290  5.00115818168447
O3B FM2                 
1 39190U 13031C   22255.17725809 -.00000028  00000+0  00000+0 0  9994
2 39190   0.0549 346.3745 0002580 186.7576 186.8712  5.00116683168377
O3B PFM                 
1 39191U 13031D   22255.60332531 -.00000028  00000+0  00000+0 0  9999
2 39191   0.0556  11.4591 0002645 160.6168 187.9284  5.00115686167956
O3B FM3                 
1 40079U 14038A   22255.65809308 -.00000028  00000+0  00000+0 0  9990
2 40079   0.0548 359.6357 0004939 160.8687 199.5145  5.00115348149418
O3B FM7                 
1 40080U 14038B   22255.80405503 -.00000028  00000+0  00000+0 0  9998
2 40080   0.0578 356.2435 0001543 220.5706 143.1754  5.00115461149177
O3B FM6                 
1 40081U 14038C   22256.03032255 -.00000028  00000+0  00000+0 0  9995
2 40081   0.0539 358.9046 0002694 174.2001 186.8992  5.00115351149450
O3B FM8                 
1 40082U 14038D   22255.48458023 -.00000028  00000+0  00000+0 0  9999
2 40082   0.0526 355.7883 0002652 173.8132 190.4039  5.00115644149228
O3B FM10                
1 40348U 14083A   22255.51063131 -.00000028  00000+0  00000+0 0  9990
2 40348   0.0513   8.2260 0002627 163.3080 188.4704  5.00115150141169
O3B FM11                
1 40349U 14083B   22255.52408917 -.00000028  00000+0  00000+0 0  9997
2 40349   0.0561   8.1287 0002450 179.3319 172.5358  5.00115372141195
O3B FM12                
1 40350U 14083C   22255.35140553 -.00000028  00000+0  00000+0 0  9999
2 40350   0.0554   7.3466 0002732 167.4196 185.2366  5.00115233141199
O3B FM9                 
1 40351U 14083D   22253.17951427 -.00000028  00000+0  00000+0 0  9998
2 40351   0.0570   8.5462 0002586 162.2250 189.2327  5.00116134141235
DIAMOND RED             
1 42783U 17036U   22255.54555105  .00010864  00000+0  39126-3 0  9999
2 42783  97.1922 293.3825 0010792  30.5517 329.6350 15.28686632290240
DIAMOND GREEN           
1 42785U 17036W   22255.34978085  .00010339  00000+0  37281-3 0  9992
2 42785  97.1924 293.2567 0010641  32.9301 327.2601 15.28659423290281
DIAMOND BLUE            
1 42786U 17036X   22256.06885932  .00011460  00000+0  41274-3 0  9994
2 42786  97.1923 293.9434 0010616  30.7748 329.4113 15.28673435290319
LEO VANTAGE 1           
1 43113U 18004C   22256.22854409  .00001563  00000+0  13260-3 0  9995
2 43113  99.2442 345.6302 0399719 287.6565  68.1367 14.54098466236991
O3B FM15                
1 43231U 18024A   22255.04446189 -.00000028  00000+0  00000+0 0  9999
2 43231   0.0479   8.9961 0002911 164.9469 186.0602  5.00116018 82285
O3B FM16                
1 43232U 18024B   22255.69752133 -.00000028  00000+0  00000+0 0  9990
2 43232   0.0441  11.0982 0002889 163.9138 184.9910  5.00115840 82235
O3B FM14                
1 43233U 18024C   22256.13693367 -.00000028  00000+0  00000+0 0  9994
2 43233   0.0426  11.1150 0002726 166.3598 182.5269  5.00115289 82490
O3B FM13                
1 43234U 18024D   22255.39087917 -.00000028  00000+0  00000+0 0  9990
2 43234   0.0563  31.3228 0003667 149.9015 178.7748  5.00115064 82332
O3B FM20                
1 44112U 19020A   22255.76386443 -.00000028  00000+0  00000+0 0  9990
2 44112   0.0510   7.5061 0003033 173.8726 178.6206  5.00115431 62864
O3B FM19                
1 44113U 19020B   22255.39087961 -.00000028  00000+0  00000+0 0  9993
2 44113   0.0685  22.9953 0001505 167.1324 169.8693  5.00115087 62714
O3B FM17                
1 44114U 19020C   22255.67128415 -.00000028  00000+0  00000+0 0  9995
2 44114   0.0380 348.2964 0003033 186.8575 184.8491  5.00115546 62811
O3B FM18                
1 44115U 19020D   22255.81769511 -.00000028  00000+0  00000+0 0  9990
2 44115   0.0513   7.8490 0002881 164.7930 187.3624  5.00115748 62935
SALSAT                  
1 46495U 20068K   22255.81238026  .00002439  00000+0  17674-3 0  9995
2 46495  97.7333 197.1762 0016007 347.8220  12.2616 15.04821421107324
